BEIDOU-3 M2-C20
1 43002U 17069B   23124.29454265  .00000046  00000+0  00000+0 0  9999
2 43002  55.7591 100.9733 0010449 312.9831 165.6603  1.86231244 37368
